2024-147B
1 60455U 24147B   24237.20293125  .00115858  00000-0  32637-2 0  9991
2 60455  37.3805 249.3946 0013493  57.6386 302.5679 15.35071800  1227
            
